SENTINEL-6              
1 46984U 20086A   24268.54422393 -.00000040  00000+0  90826-4 0  9994
2 46984  66.0450   4.9051 0007829 269.1718  90.8400 12.80928279179559
